start=new Date('2023-06-10T00:00:00.000Z').valueOf();
sats=[{"PERIAPSIS":"546.427","ELEMENT_SET_NO":"999","DECAY_DATE":null,"OBJECT_ID":"2021-038AE","OBJECT_NAME":"STARLINK-2630","APOAPSIS":"548.032","SEMIMAJOR_AXIS":"6925.365","RCS_SIZE":"LARGE","CENTER_NAME":"EARTH","PERIOD":"95.592","NORAD_CAT_ID":"48381","MEAN_MOTION_DOT":"0.00002685","ECCENTRICITY":"0.00011590","MEAN_ANOMALY":"275.8842","MEAN_ELEMENT_THEORY":"SGP4","TIME_SYSTEM":"UTC","TLE_LINE1":"1 48381U 21038AE  23160.36897317  .00002685  00000-0  19912-3 0  9990","CLASSIFICATION_TYPE":"U","EPOCH":"2023-06-09T08:51:19.281888","RA_OF_ASC_NODE":"180.1874","COUNTRY_CODE":"US","REF_FRAME":"TEME","EPHEMERIS_TYPE":"0","TLE_LINE2":"2 48381  53.0525 180.1874 0001159  84.2279 275.8842 15.06394788116389","INCLINATION":"53.0525","SITE":"AFETR","GP_ID":"233553682","ARG_OF_PERICENTER":"84.2279","BSTAR":"0.00019912000000","FILE":"3928998","MEAN_MOTION_DDOT":"0.0000000000000","MEAN_MOTION":"15.06394788","REV_AT_EPOCH":"11638","LAUNCH_DATE":"2021-05-04","OBJECT_TYPE":"PAYLOAD"},{"ELEMENT_SET_NO":"999","PERIAPSIS":"546.509","DECAY_DATE":null,"OBJECT_ID":"2021-038AF","OBJECT_NAME":"STARLINK-2585","APOAPSIS":"547.935","SEMIMAJOR_AXIS":"6925.357","CENTER_NAME":"EARTH","RCS_SIZE":"LARGE","PERIOD":"95.592","NORAD_CAT_ID":"48382","MEAN_MOTION_DOT":"0.00002721","ECCENTRICITY":"0.00010300","MEAN_ELEMENT_THEORY":"SGP4","MEAN_ANOMALY":"268.5814","TIME_SYSTEM":"UTC","TLE_LINE1":"1 48382U 21038AF  23160.36528566  .00002721  00000-0  20151-3 0  9996","CLASSIFICATION_TYPE":"U","EPOCH":"2023-06-09T08:46:00.681024","RA_OF_ASC_NODE":"180.2069","COUNTRY_CODE":"US","REF_FRAME":"TEME","EPHEMERIS_TYPE":"0","TLE_LINE2":"2 48382  53.0524 180.2069 0001030  91.5293 268.5814 15.06397213115799","INCLINATION":"53.0524","SITE":"AFETR","GP_ID":"233546151","ARG_OF_PERICENTER":"91.5293","BSTAR":"0.00020151000000","FILE":"3928876","MEAN_MOTION_DDOT":"0.0000000000000","MEAN_MOTION":"15.06397213","REV_AT_EPOCH":"11579","LAUNCH_DATE":"2021-05-04","OBJECT_TYPE":"PAYLOAD"},{"RA_OF_ASC_NODE":"179.9223","MEAN_ANOMALY":"293.2112","MEAN_ELEMENT_THEORY":"SGP4","TIME_SYSTEM":"UTC","EPOCH":"2023-06-09T10:16:14.615616","TLE_LINE1":"1 48383U 21038AG  23160.42794694  .00001417  00000-0  11404-3 0  9993","CLASSIFICATION_TYPE":"U","INCLINATION":"53.0531","COUNTRY_CODE":"US","REF_FRAME":"TEME","EPHEMERIS_TYPE":"0","TLE_LINE2":"2 48383  53.0531 179.9223 0001005  66.8983 293.2112 15.06390828117027","ARG_OF_PERICENTER":"66.8983","FILE":"3928876","BSTAR":"0.00011404000000","MEAN_MOTION_DDOT":"0.0000000000000","SITE":"AFETR","GP_ID":"233544901","OBJECT_TYPE":"PAYLOAD","MEAN_MOTION":"15.06390828","REV_AT_EPOCH":"11702","LAUNCH_DATE":"2021-05-04","PERIAPSIS":"546.546","ELEMENT_SET_NO":"999","DECAY_DATE":null,"OBJECT_ID":"2021-038AG","APOAPSIS":"547.938","OBJECT_NAME":"STARLINK-2599","CENTER_NAME":"EARTH","RCS_SIZE":"LARGE","PERIOD":"95.593","SEMIMAJOR_AXIS":"6925.377","MEAN_MOTION_DOT":"0.00001417","ECCENTRICITY":"0.00010050","NORAD_CAT_ID":"48383"},{"PERIOD":"95.593","RCS_SIZE":"LARGE","CENTER_NAME":"EARTH","SEMIMAJOR_AXIS":"6925.367","ECCENTRICITY":"0.00011950","MEAN_MOTION_DOT":"0.00000552","NORAD_CAT_ID":"48384","OBJECT_ID":"2021-038AH","DECAY_DATE":null,"PERIAPSIS":"546.404","ELEMENT_SET_NO":"999","APOAPSIS":"548.059","OBJECT_NAME":"STARLINK-2601","MEAN_MOTION_DDOT":"0.0000000000000","BSTAR":"0.00005594300000","FILE":"3929125","ARG_OF_PERICENTER":"88.7959","GP_ID":"233578430","SITE":"AFETR","OBJECT_TYPE":"PAYLOAD","LAUNCH_DATE":"2021-05-04","REV_AT_EPOCH":"11707","MEAN_MOTION":"15.06394064","RA_OF_ASC_NODE":"178.4514","TLE_LINE1":"1 48384U 21038AH  23160.75599546  .00000552  00000-0  55943-4 0  9995","EPOCH":"2023-06-09T18:08:38.007744","CLASSIFICATION_TYPE":"U","TIME_SYSTEM":"UTC","MEAN_ELEMENT_THEORY":"SGP4","MEAN_ANOMALY":"271.3167","INCLINATION":"53.0538","TLE_LINE2":"2 48384  53.0538 178.4514 0001195  88.7959 271.3167 15.06394064117076","EPHEMERIS_TYPE":"0","REF_FRAME":"TEME","COUNTRY_CODE":"US"},{"OBJECT_NAME":"STARLINK-2598","APOAPSIS":"548.012","DECAY_DATE":null,"OBJECT_ID":"2021-038AJ","PERIAPSIS":"546.442","ELEMENT_SET_NO":"999","NORAD_CAT_ID":"48385","MEAN_MOTION_DOT":"0.00001635","ECCENTRICITY":"0.00011330","SEMIMAJOR_AXIS":"6925.362","PERIOD":"95.592","CENTER_NAME":"EARTH","RCS_SIZE":"LARGE","EPHEMERIS_TYPE":"0","TLE_LINE2":"2 48385  53.0524 178.4643 0001133  82.6919 277.4199 15.06395595117078","COUNTRY_CODE":"US","REF_FRAME":"TEME","INCLINATION":"53.0524","TLE_LINE1":"1 48385U 21038AJ  23160.75230767  .00001635  00000-0  12866-3 0  9992","EPOCH":"2023-06-09T18:03:19.382688","CLASSIFICATION_TYPE":"U","MEAN_ANOMALY":"277.4199","MEAN_ELEMENT_THEORY":"SGP4","TIME_SYSTEM":"UTC","RA_OF_ASC_NODE":"178.4643","LAUNCH_DATE":"2021-05-04","MEAN_MOTION":"15.06395595","REV_AT_EPOCH":"11707","OBJECT_TYPE":"PAYLOAD","GP_ID":"233577180","SITE":"AFETR","FILE":"3929125","BSTAR":"0.00012866000000","MEAN_MOTION_DDOT":"0.0000000000000","ARG_OF_PERICENTER":"82.6919"},{"MEAN_MOTION_DOT":"0.00001350","ECCENTRICITY":"0.00011180","NORAD_CAT_ID":"48386","PERIOD":"95.593","RCS_SIZE":"LARGE","CENTER_NAME":"EARTH","SEMIMAJOR_AXIS":"6925.369","APOAPSIS":"548.008","OBJECT_NAME":"STARLINK-2606","OBJECT_ID":"2021-038AK","DECAY_DATE":null,"PERIAPSIS":"546.460","ELEMENT_SET_NO":"999","OBJECT_TYPE":"PAYLOAD","LAUNCH_DATE":"2021-05-04","REV_AT_EPOCH":"11591","MEAN_MOTION":"15.06393379","MEAN_MOTION_DDOT":"0.0000000000000","FILE":"3929125","BSTAR":"0.00010954000000","ARG_OF_PERICENTER":"85.7493","GP_ID":"233577430","SITE":"AFETR","INCLINATION":"53.0536","TLE_LINE2":"2 48386  53.0536 173.5293 0001118  85.7493 274.3624 15.06393379115911","EPHEMERIS_TYPE":"0","REF_FRAME":"TEME","COUNTRY_CODE":"US","RA_OF_ASC_NODE":"173.5293","CLASSIFICATION_TYPE":"U","TLE_LINE1":"1 48386U 21038AK  23160.73987077  .00001350  00000-0  10954-3 0  9994","EPOCH":"2023-06-09T17:45:24.834528","TIME_SYSTEM":"UTC","MEAN_ELEMENT_THEORY":"SGP4","MEAN_ANOMALY":"274.3624"},{"OBJECT_ID":"2021-038AL","DECAY_DATE":null,"PERIAPSIS":"546.400","ELEMENT_SET_NO":"999","APOAPSIS":"548.061","OBJECT_NAME":"STARLINK-2600","PERIOD":"95.592","CENTER_NAME":"EARTH","RCS_SIZE":"LARGE","SEMIMAJOR_AXIS":"6925.366","ECCENTRICITY":"0.00011990","MEAN_MOTION_DOT":"0.00001490","NORAD_CAT_ID":"48387","RA_OF_ASC_NODE":"175.4438","CLASSIFICATION_TYPE":"U","TLE_LINE1":"1 48387U 21038AL  23160.30493101  .00001490  00000-0  11890-3 0  9993","EPOCH":"2023-06-09T07:19:06.039264","TIME_SYSTEM":"UTC","MEAN_ANOMALY":"269.7699","MEAN_ELEMENT_THEORY":"SGP4","INCLINATION":"53.0528","TLE_LINE2":"2 48387  53.0528 175.4438 0001199  90.3427 269.7699 15.06394411115854","EPHEMERIS_TYPE":"0","REF_FRAME":"TEME","COUNTRY_CODE":"US","MEAN_MOTION_DDOT":"0.0000000000000","BSTAR":"0.00011890000000","FILE":"3928876","ARG_OF_PERICENTER":"90.3427","GP_ID":"233544406","SITE":"AFETR","OBJECT_TYPE":"PAYLOAD","LAUNCH_DATE":"2021-05-04","REV_AT_EPOCH":"11585","MEAN_MOTION":"15.06394411"},{"FILE":"3928876","BSTAR":"0.00010792000000","MEAN_MOTION_DDOT":"0.0000000000000","ARG_OF_PERICENTER":"83.6208","GP_ID":"233545152","SITE":"AFETR","OBJECT_TYPE":"PAYLOAD","LAUNCH_DATE":"2021-05-04","MEAN_MOTION":"15.06393929","REV_AT_EPOCH":"11585","RA_OF_ASC_NODE":"175.4921","CLASSIFICATION_TYPE":"U","TLE_LINE1":"1 48388U 21038AM  23160.30124696  .00001326  00000-0  10792-3 0  9992","EPOCH":"2023-06-09T07:13:47.737344","MEAN_ANOMALY":"276.4892","MEAN_ELEMENT_THEORY":"SGP4","TIME_SYSTEM":"UTC","INCLINATION":"53.0535","EPHEMERIS_TYPE":"0","TLE_LINE2":"2 48388  53.0535 175.4921 0000976  83.6208 276.4892 15.06393929115857","COUNTRY_CODE":"US","REF_FRAME":"TEME","PERIOD":"95.593","RCS_SIZE":"LARGE","CENTER_NAME":"EARTH","SEMIMAJOR_AXIS":"6925.367","ECCENTRICITY":"0.00009760","MEAN_MOTION_DOT":"0.00001326","NORAD_CAT_ID":"48388","DECAY_DATE":null,"OBJECT_ID":"2021-038AM","ELEMENT_SET_NO":"999","PERIAPSIS":"546.556","APOAPSIS":"547.908","OBJECT_NAME":"STARLINK-2594"},{"OBJECT_NAME":"STARLINK-1904","APOAPSIS":"547.976","DECAY_DATE":null,"OBJECT_ID":"2021-038AN","PERIAPSIS":"546.451","ELEMENT_SET_NO":"999","NORAD_CAT_ID":"48389","ECCENTRICITY":"0.00011010","MEAN_MOTION_DOT":"0.00001469","SEMIMAJOR_AXIS":"6925.349","PERIOD":"95.592","RCS_SIZE":"LARGE","CENTER_NAME":"EARTH","EPHEMERIS_TYPE":"0","TLE_LINE2":"2 48389  53.0532 168.4570 0001101  85.4206 274.6909 15.06399910115985","COUNTRY_CODE":"US","REF_FRAME":"TEME","INCLINATION":"53.0532","TLE_LINE1":"1 48389U 21038AN  23160.75228162  .00001469  00000-0  11751-3 0  9999","EPOCH":"2023-06-09T18:03:17.131968","CLASSIFICATION_TYPE":"U","MEAN_ANOMALY":"274.6909","MEAN_ELEMENT_THEORY":"SGP4","TIME_SYSTEM":"UTC","RA_OF_ASC_NODE":"168.4570","LAUNCH_DATE":"2021-05-04","MEAN_MOTION":"15.06399910","REV_AT_EPOCH":"11598","OBJECT_TYPE":"PAYLOAD","GP_ID":"233577681","SITE":"AFETR","BSTAR":"0.00011751000000","FILE":"3929125","MEAN_MOTION_DDOT":"0.0000000000000","ARG_OF_PERICENTER":"85.4206"},{"SITE":"AFETR","GP_ID":"233577931","ARG_OF_PERICENTER":"86.9267","BSTAR":"0.00015244000000","FILE":"3929125","MEAN_MOTION_DDOT":"0.0000000000000","MEAN_MOTION":"15.06400067","REV_AT_EPOCH":"11720","LAUNCH_DATE":"2021-05-04","OBJECT_TYPE":"PAYLOAD","MEAN_ELEMENT_THEORY":"SGP4","MEAN_ANOMALY":"273.1866","TIME_SYSTEM":"UTC","EPOCH":"2023-06-09T17:59:20.463360","TLE_LINE1":"1 48390U 21038AP  23160.74954240  .00001990  00000-0  15244-3 0  9993","CLASSIFICATION_TYPE":"U","RA_OF_ASC_NODE":"168.4788","COUNTRY_CODE":"US","REF_FRAME":"TEME","EPHEMERIS_TYPE":"0","TLE_LINE2":"2 48390  53.0533 168.4788 0001265  86.9267 273.1866 15.06400067117202","INCLINATION":"53.0533","SEMIMAJOR_AXIS":"6925.348","RCS_SIZE":"LARGE","CENTER_NAME":"EARTH","PERIOD":"95.592","NORAD_CAT_ID":"48390","ECCENTRICITY":"0.00012650","MEAN_MOTION_DOT":"0.00001990","PERIAPSIS":"546.337","ELEMENT_SET_NO":"999","DECAY_DATE":null,"OBJECT_ID":"2021-038AP","OBJECT_NAME":"STARLINK-2586","APOAPSIS":"548.089"}];
